
# Worst residual: 176.65 km
# MJD 59139.000000 (2020 Oct 17  0:00)
ZTF0KOI = ZTF0KQT = ZTF0K7F
1 88866U 00000ABH 20291.49919926  .00000000  00000-0  00000-0 0 11464
2 88866 016.8260 349.9320 3811527 240.0822 097.5051 00.96134859    08

# Worst residual: 156.81 km
# MJD 59140.000000 (2020 Oct 18  0:00)
ZTF0KOI = ZTF0KQT = ZTF0K7F
1 88866U 00000ABH 20292.49919926  .00000000  00000-0  00000-0 0 11465
2 88866 016.8282 349.9413 3857630 241.3172 082.5632 00.96235194    05

# Worst residual: 162.87 km
# MJD 59141.000000 (2020 Oct 19  0:00)
ZTF0KOI = ZTF0KQT = ZTF0K7F
1 88866U 00000ABH 20293.49919926  .00000000  00000-0  00000-0 0 11466
2 88866 016.8305 349.9532 3902602 242.5403 067.6900 00.96338040    09

# Worst residual: 160.25 km
# MJD 59142.000000 (2020 Oct 20  0:00)
ZTF0KOI = ZTF0KQT = ZTF0K7F
1 88866U 00000ABH 20294.49919926  .00000000  00000-0  00000-0 0 11467
2 88866 016.8329 349.9677 3946882 243.7595 052.8788 00.96438869    08

# Worst residual: 147.64 km
# MJD 59143.000000 (2020 Oct 21  0:00)
ZTF0KOI = ZTF0KQT = ZTF0K7F
1 88866U 00000ABH 20295.49919926  .00000000  00000-0  00000-0 0 11468
2 88866 016.8355 349.9845 3991276 244.9780 038.1282 00.96532689    01

# Worst residual: 128.49 km
# MJD 59144.000000 (2020 Oct 22  0:00)
ZTF0KOI = ZTF0KQT = ZTF0K7F
1 88866U 00000ABH 20296.49919926  .00000000  00000-0  00000-0 0 11469
2 88866 016.8383 350.0034 4036410 246.1932 023.4450 00.96614433    01

# Worst residual: 106.85 km
# MJD 59145.000000 (2020 Oct 23  0:00)
ZTF0KOI = ZTF0KQT = ZTF0K7F
1 88866U 00000ABH 20297.49919926  .00000000  00000-0  00000-0 0 11460
2 88866 016.8413 350.0249 4082834 247.4007 008.8375 00.96679220    09

# Worst residual: 96.92 km
# MJD 59146.000000 (2020 Oct 24  0:00)
ZTF0KOI = ZTF0KQT = ZTF0K7F
1 88866U 00000ABH 20298.49919926  .00000000  00000-0  00000-0 0 11461
2 88866 016.8529 350.0571 4131074 248.5742 354.3291 00.96727408    02

# Worst residual: 126.22 km
# MJD 59147.000000 (2020 Oct 25  0:00)
ZTF0KOI = ZTF0KQT = ZTF0K7F
1 88866U 00000ABH 20299.49919926  .00000000  00000-0  00000-0 0 11462
2 88866 016.8500 350.0620 4180966 249.7503 339.9308 00.96735339    08

# Worst residual: 157.60 km
# MJD 59148.000000 (2020 Oct 26  0:00)
ZTF0KOI = ZTF0KQT = ZTF0K7F
1 88866U 00000ABH 20300.49919926  .00000000  00000-0  00000-0 0 11465
2 88866 016.8509 350.1038 4230683 250.8742 325.6455 00.96749315    05

# Worst residual: 182.88 km
# MJD 59149.000000 (2020 Oct 27  0:00)
ZTF0KOI = ZTF0KQT = ZTF0K7F
1 88866U 00000ABH 20301.49919926  .00000000  00000-0  00000-0 0 11466
2 88866 016.8542 350.1346 4281421 251.9587 311.5065 00.96735339    01

# Worst residual: 200.10 km
# MJD 59150.000000 (2020 Oct 28  0:00)
ZTF0KOI = ZTF0KQT = ZTF0K7F
1 88866U 00000ABH 20302.49919926  .00000000  00000-0  00000-0 0 11467
2 88866 016.8546 350.1773 4330902 252.9966 297.4994 00.96707520    04

# Worst residual: 209.77 km
# MJD 59151.000000 (2020 Oct 29  0:00)
ZTF0KOI = ZTF0KQT = ZTF0K7F
1 88866U 00000ABH 20303.49919926  .00000000  00000-0  00000-0 0 11468
2 88866 016.8605 350.2019 4381320 254.0232 283.6407 00.96674672    00

# Worst residual: 205.34 km
# MJD 59152.000000 (2020 Oct 30  0:00)
ZTF0KOI = ZTF0KQT = ZTF0K7F
1 88866U 00000ABH 20304.49919926  .00000000  00000-0  00000-0 0 11469
2 88866 016.8635 350.2390 4429250 255.0129 269.9093 00.96634047    06

# Worst residual: 184.83 km
# MJD 59153.000000 (2020 Oct 31  0:00)
ZTF0KOI = ZTF0KQT = ZTF0K7F
1 88866U 00000ABH 20305.49919926  .00000000  00000-0  00000-0 0 11460
2 88866 016.8580 350.2310 4476322 256.0165 256.3251 00.96589273    06

# Worst residual: 181.47 km
# MJD 59154.000000 (2020 Nov  1  0:00)
ZTF0KOI = ZTF0KQT = ZTF0K7F
1 88866U 00000ABH 20306.49919926  .00000000  00000-0  00000-0 0 11461
2 88866 016.8690 350.3230 4519970 256.9526 242.8052 00.96547026    06

# Worst residual: 144.41 km
# MJD 59155.000000 (2020 Nov  2  0:00)
ZTF0KOI = ZTF0KQT = ZTF0K7F
1 88866U 00000ABH 20307.49919926  .00000000  00000-0  00000-0 0 11462
2 88866 016.8695 350.3158 4562957 257.9586 229.4328 00.96499587    05

# Worst residual: 102.60 km
# MJD 59156.000000 (2020 Nov  3  0:00)
ZTF0KOI = ZTF0KQT = ZTF0K7F
1 88866U 00000ABH 20308.49919926  .00000000  00000-0  00000-0 0 11463
2 88866 016.8739 350.4252 4603358 258.8881 216.1216 00.96458729    01

# Worst residual: 107.96 km
# MJD 59157.000000 (2020 Nov  4  0:00)
ZTF0KOI = ZTF0KQT = ZTF0K7F
1 88866U 00000ABH 20309.49919926  .00000000  00000-0  00000-0 0 11464
2 88866 016.8813 350.4965 4646231 259.8630 202.9105 00.96436612    02

# Worst residual: 102.73 km
# MJD 59158.000000 (2020 Nov  5  0:00)
ZTF0KOI = ZTF0KQT = ZTF0K7F
1 88866U 00000ABH 20310.49919926  .00000000  00000-0  00000-0 0 11466
2 88866 016.8814 350.5688 4690330 260.8249 189.8316 00.96424038    09

# Worst residual: 84.81 km
# MJD 59159.000000 (2020 Nov  6  0:00)
ZTF0KOI = ZTF0KQT = ZTF0K7F
1 88866U 00000ABH 20311.49919926  .00000000  00000-0  00000-0 0 11467
2 88866 016.8821 350.6045 4736977 261.8154 176.8751 00.96444218    00

# Worst residual: 68.33 km
# MJD 59160.000000 (2020 Nov  7  0:00)
ZTF0KOI = ZTF0KQT = ZTF0K7F
1 88866U 00000ABH 20312.49919926  .00000000  00000-0  00000-0 0 11468
2 88866 016.8808 350.6831 4785017 262.7539 164.0340 00.96475151    07

# Worst residual: 74.45 km
# MJD 59161.000000 (2020 Nov  8  0:00)
ZTF0KOI = ZTF0KQT = ZTF0K7F
1 88866U 00000ABH 20313.49919926  .00000000  00000-0  00000-0 0 11469
2 88866 016.8813 350.7527 4834913 263.6665 151.3497 00.96525378    05

# Worst residual: 115.52 km
# MJD 59162.000000 (2020 Nov  9  0:00)
ZTF0KOI = ZTF0KQT = ZTF0K7F
1 88866U 00000ABH 20314.49919926  .00000000  00000-0  00000-0 0 11460
2 88866 016.8813 350.8247 4884922 264.5497 138.8061 00.96584824    01

# Worst residual: 154.98 km
# MJD 59163.000000 (2020 Nov 10  0:00)
ZTF0KOI = ZTF0KQT = ZTF0K7F
1 88866U 00000ABH 20315.49919926  .00000000  00000-0  00000-0 0 11461
2 88866 016.8785 350.9121 4935424 265.4007 126.3841 00.96648425    08

# Worst residual: 179.97 km
# MJD 59164.000000 (2020 Nov 11  0:00)
ZTF0KOI = ZTF0KQT = ZTF0K7F
1 88866U 00000ABH 20316.49919926  .00000000  00000-0  00000-0 0 11462
2 88866 016.8818 350.9647 4983973 266.2497 114.1219 00.96730182    08

# Worst residual: 193.27 km
# MJD 59165.000000 (2020 Nov 12  0:00)
ZTF0KOI = ZTF0KQT = ZTF0K7F
1 88866U 00000ABH 20317.49919926  .00000000  00000-0  00000-0 0 11463
2 88866 016.8786 351.0604 5032601 267.0625 101.9472 00.96815775    00

# Worst residual: 178.54 km
# MJD 59166.000000 (2020 Nov 13  0:00)
ZTF0KOI = ZTF0KQT = ZTF0K7F
1 88866U 00000ABH 20318.49919926  .00000000  00000-0  00000-0 0 11464
2 88866 016.8748 351.1634 5080217 267.8325 089.9225 00.96915468    04

# Worst residual: 182.35 km
# MJD 59167.000000 (2020 Nov 14  0:00)
ZTF0KOI = ZTF0KQT = ZTF0K7F
1 88866U 00000ABH 20319.49919926  .00000000  00000-0  00000-0 0 11465
2 88866 016.8749 351.2403 5126444 268.6654 077.9428 00.97000884    07
